NORAD_CAT_ID,OBJECT_NAME,OBJECT_TYPE,EPOCH,MEAN_MOTION,ECCENTRICITY,INCLINATION,RA_OF_ASC_NODE,ARG_OF_PERICENTER,MEAN_ANOMALY,BSTAR,MEAN_MOTION_DOT,MEAN_MOTION_DDOT,TLE_LINE0,TLE_LINE1,TLE_LINE2,SEMIMAJOR_AXIS,PERIOD,APOGEE,PERIGEE,DECAYED
52544.0,STARLINK-3944,PAYLOAD,2024-06-14 18:54:07,15.0883434,0.0001506,53.2173,95.3412,90.5686,269.5478,0.00011324,1.514e-05,0.0,0 STARLINK-3944,1 52544U 22051M   24166.78758873  .00001514  00000-0  11324-3 0  9997,2 52544  53.2173  95.3412 0001506  90.5686 269.5478 15.08834340115827,6917.898,95.438,540.805,538.721,0.0
52544.0,STARLINK-3944,PAYLOAD,2024-06-15 12:23:21,15.08841514,0.0001438,53.2174,92.0692,84.0839,276.0317,5.3456e-05,5.63e-06,0.0,0 STARLINK-3944,1 52544U 22051M   24167.51622672  .00000563  00000-0  53456-4 0  9992,2 52544  53.2174  92.0692 0001438  84.0839 276.0317 15.08841514115932,6917.876,95.437,540.736,538.746,0.0
52544.0,STARLINK-3944,PAYLOAD,2024-06-16 12:14:08,15.08842655,0.0001507,53.2182,87.6052,103.8687,256.2473,1.504e-06,-2.64e-06,0.0,0 STARLINK-3944,1 52544U 22051M   24168.50982623 -.00000264  00000-0  15040-5 0  9994,2 52544  53.2182  87.6052 0001507 103.8687 256.2473 15.08842655116086,6917.872,95.437,540.78,538.695,0.0
52544.0,STARLINK-3944,PAYLOAD,2024-06-16 21:46:28,15.08837432,0.0001469,53.217,85.8255,96.483,263.633,2.2911e-05,7.7e-07,0.0,0 STARLINK-3944,1 52544U 22051M   24168.90726981  .00000077  00000-0  22911-4 0  9996,2 52544  53.2170  85.8255 0001469  96.4830 263.6330 15.08837432116140,6917.888,95.438,540.769,538.737,0.0
52544.0,STARLINK-3944,PAYLOAD,2024-06-17 21:37:15,15.08837935,0.0001574,53.2173,81.3606,111.5443,248.5717,1.6081e-05,-3.2e-07,0.0,0 STARLINK-3944,1 52544U 22051M   24169.90086878 -.00000032  00000-0  16081-4 0  9994,2 52544  53.2173  81.3606 0001574 111.5443 248.5717 15.08837935116363,6917.887,95.438,540.841,538.663,0.0
52544.0,STARLINK-3944,PAYLOAD,2024-06-18 03:58:47,15.08842862,0.0001421,53.2177,80.1714,98.8309,261.2844,-6.1164e-06,-3.85e-06,0.0,0 STARLINK-3944,1 52544U 22051M   24170.16582706 -.00000385  00000-0 -61164-5 0  9990,2 52544  53.2177  80.1714 0001421  98.8309 261.2844 15.08842862116338,6917.872,95.437,540.72,538.754,0.0
52544.0,STARLINK-3944,PAYLOAD,2024-06-18 21:27:59,15.08930611,0.0001946,53.2179,76.9,86.2192,273.9023,-0.0011615,-0.00018772,0.0,0 STARLINK-3944,1 52544U 22051M   24170.89444170 -.00018772  00000-0 -11615-2 0  9994,2 52544  53.2179  76.9000 0001946  86.2192 273.9023 15.08930611116445,6917.603,95.432,540.815,538.122,0.0
52544.0,STARLINK-3944,PAYLOAD,2024-06-19 00:38:47,15.08844063,0.0001448,53.218,76.3053,97.3948,262.7209,7.6527e-05,9.3e-06,0.0,0 STARLINK-3944,1 52544U 22051M   24171.02694329  .00000930  00000-0  76527-4 0  9993,2 52544  53.2180  76.3053 0001448  97.3948 262.7209 15.08844063116535,6917.868,95.437,540.735,538.731,0.0
52544.0,STARLINK-3944,PAYLOAD,2024-06-19 10:11:06,15.08841623,0.0001408,53.2182,74.5227,99.0656,261.0496,4.1124e-06,-2.22e-06,0.0,0 STARLINK-3944,1 52544U 22051M   24171.42438647 -.00000222  00000-0  41124-5 0  9997,2 52544  53.2182  74.5227 0001408  99.0656 261.0496 15.08841623116529,6917.875,95.437,540.714,538.766,0.0
52544.0,STARLINK-3944,PAYLOAD,2024-06-19 21:18:49,15.08834203,0.000156,53.2189,72.4434,92.6055,267.5115,-2.1621e-05,-6.32e-06,0.0,0 STARLINK-3944,1 52544U 22051M   24171.88807446 -.00000632  00000-0 -21621-4 0  9999,2 52544  53.2189  72.4434 0001560  92.6055 267.5115 15.08834203116664,6917.898,95.438,540.842,538.684,0.0
52544.0,STARLINK-3944,PAYLOAD,2024-06-19 22:54:12,15.08835166,0.0001543,53.219,72.1461,88.9982,271.1187,-2.2719e-05,-6.49e-06,0.0,0 STARLINK-3944,1 52544U 22051M   24171.95431415 -.00000649  00000-0 -22719-4 0  9993,2 52544  53.2190  72.1461 0001543  88.9982 271.1187 15.08835166116604,6917.895,95.438,540.828,538.693,0.0
52544.0,STARLINK-3944,PAYLOAD,2024-06-20 10:01:54,15.08839191,0.0001583,53.2192,70.0667,98.3566,261.7605,-1.9638e-05,-6.01e-06,0.0,0 STARLINK-3944,1 52544U 22051M   24172.41799188 -.00000601  00000-0 -19638-4 0  9993,2 52544  53.2192  70.0667 0001583  98.3566 261.7605 15.08839191116677,6917.883,95.438,540.843,538.653,0.0
52544.0,STARLINK-3944,PAYLOAD,2024-06-20 22:45:00,15.08835192,0.0001695,53.2193,67.6909,110.6409,249.4765,-5.3036e-05,-1.132e-05,0.0,0 STARLINK-3944,1 52544U 22051M   24172.94791758 -.00001132  00000-0 -53036-4 0  9996,2 52544  53.2193  67.6909 0001695 110.6409 249.4765 15.08835192116821,6917.895,95.438,540.933,538.588,0.0
52544.0,STARLINK-3944,PAYLOAD,2024-06-21 01:55:46,15.08835805,0.0001809,53.2198,67.0954,114.4608,245.6573,-2.6663e-05,-7.12e-06,0.0,0 STARLINK-3944,1 52544U 22051M   24173.08039647 -.00000712  00000-0 -26663-4 0  9993,2 52544  53.2198  67.0954 0001809 114.4608 245.6573 15.08835805116770,6917.893,95.438,541.01,538.507,0.0
52544.0,STARLINK-3944,PAYLOAD,2024-06-21 21:00:23,15.08838923,0.0001727,53.2199,63.5271,111.0755,249.0422,7.6128e-05,9.24e-06,0.0,0 STARLINK-3944,1 52544U 22051M   24173.87527341  .00000924  00000-0  76128-4 0  9997,2 52544  53.2199  63.5271 0001727 111.0755 249.0422 15.08838923116965,6917.884,95.438,540.943,538.554,0.0
52544.0,STARLINK-3944,PAYLOAD,2024-06-21 22:35:46,15.08839927,0.0001698,53.2196,63.2295,110.8858,249.2316,6.7138e-05,7.81e-06,0.0,0 STARLINK-3944,1 52544U 22051M   24173.94151310  .00000781  00000-0  67138-4 0  9996,2 52544  53.2196  63.2295 0001698 110.8858 249.2316 15.08839927116906,6917.881,95.438,540.92,538.571,0.0
52544.0,STARLINK-3944,PAYLOAD,2024-06-22 00:11:09,15.0884106,0.000163,53.2187,62.9311,112.2613,247.8552,6.6823e-05,7.76e-06,0.0,0 STARLINK-3944,1 52544U 22051M   24174.00775220  .00000776  00000-0  66823-4 0  9990,2 52544  53.2187  62.9311 0001630 112.2613 247.8552 15.08841060116910,6917.877,95.437,540.87,538.615,0.0
52544.0,STARLINK-3944,PAYLOAD,2024-06-22 20:51:11,15.08831623,0.0001539,53.2179,59.0616,75.2055,284.9107,6.4965e-05,7.46e-06,0.0,0 STARLINK-3944,1 52544U 22051M   24174.86888184  .00000746  00000-0  64965-4 0  9990,2 52544  53.2179  59.0616 0001539  75.2055 284.9107 15.08831623117117,6917.906,95.438,540.836,538.706,0.0
52544.0,STARLINK-3944,PAYLOAD,2024-06-22 22:26:34,15.0883509,0.0001458,53.2178,58.7647,75.8184,284.297,2.5283e-05,1.14e-06,0.0,0 STARLINK-3944,1 52544U 22051M   24174.93512138  .00000114  00000-0  25283-4 0  9990,2 52544  53.2178  58.7647 0001458  75.8184 284.2970 15.08835090117051,6917.895,95.438,540.769,538.752,0.0
52544.0,STARLINK-3944,PAYLOAD,2024-06-23 01:37:20,15.08834021,0.0001834,53.2192,58.1635,57.2203,302.8965,9.3885e-05,1.206e-05,0.0,0 STARLINK-3944,1 52544U 22051M   24175.06760081  .00001206  00000-0  93885-4 0  9993,2 52544  53.2192  58.1635 0001834  57.2203 302.8965 15.08834021117078,6917.899,95.438,541.032,538.495,0.0
52544.0,STARLINK-3944,PAYLOAD,2024-06-23 20:41:57,15.08845435,0.0001861,53.219,54.5979,62.2252,297.8929,7.194e-05,8.57e-06,0.0,0 STARLINK-3944,1 52544U 22051M   24175.86247331  .00000857  00000-0  71940-4 0  9998,2 52544  53.2190  54.5979 0001861  62.2252 297.8929 15.08845435117262,6917.864,95.437,541.016,538.441,0.0
52544.0,STARLINK-3944,PAYLOAD,2024-06-23 22:17:20,15.08846264,0.0001893,53.219,54.3004,61.599,298.5193,7.8944e-05,9.69e-06,0.0,0 STARLINK-3944,1 52544U 22051M   24175.92871247  .00000969  00000-0  78944-4 0  9999,2 52544  53.2190  54.3004 0001893  61.5990 298.5193 15.08846264117201,6917.861,95.437,541.036,538.417,0.0
52544.0,STARLINK-3944,PAYLOAD,2024-06-24 01:28:06,15.08848673,0.0001879,53.2192,53.704,63.1713,296.9471,9.4346e-05,1.214e-05,0.0,0 STARLINK-3944,1 52544U 22051M   24176.06118972  .00001214  00000-0  94346-4 0  9992,2 52544  53.2192  53.7040 0001879  63.1713 296.9471 15.08848673117220,6917.854,95.437,541.019,538.419,0.0
52544.0,STARLINK-3944,PAYLOAD,2024-06-24 20:32:44,15.08841153,0.0001575,53.2189,50.1317,97.5973,262.5198,-5.1325e-06,-3.7e-06,0.0,0 STARLINK-3944,1 52544U 22051M   24176.85607446 -.00000370  00000-0 -51325-5 0  9993,2 52544  53.2189  50.1317 0001575  97.5973 262.5198 15.08841153117418,6917.877,95.437,540.831,538.652,0.0
52544.0,STARLINK-3944,PAYLOAD,2024-06-25 21:58:54,15.08841539,0.000165,53.2182,45.3724,101.6593,258.4584,1.4629e-05,-5.5e-07,0.0,0 STARLINK-3944,1 52544U 22051M   24177.91591191 -.00000055  00000-0  14629-4 0  9994,2 52544  53.2182  45.3724 0001650 101.6593 258.4584 15.08841539117509,6917.876,95.437,540.882,538.599,0.0
52544.0,STARLINK-3944,PAYLOAD,2024-06-27 07:22:01,15.0883219,0.0001476,53.2185,39.1391,91.423,268.6932,-5.1746e-06,-3.7e-06,0.0,0 STARLINK-3944,1 52544U 22051M   24179.30696298 -.00000370  00000-0 -51746-5 0  9996,2 52544  53.2185  39.1391 0001476  91.4230 268.6932 15.08832190117786,6917.904,95.438,540.79,538.748,0.0
52544.0,STARLINK-3944,PAYLOAD,2024-06-27 20:05:06,15.08832936,0.0001395,53.218,36.76,90.4991,269.6161,-4.6284e-05,-1.024e-05,0.0,0 STARLINK-3944,1 52544U 22051M   24179.83688632 -.00001024  00000-0 -46284-4 0  9994,2 52544  53.2180  36.7600 0001395  90.4991 269.6161 15.08832936117794,6917.902,95.438,540.732,538.802,0.0
52544.0,STARLINK-3944,PAYLOAD,2024-06-28 07:12:48,15.08843512,0.0001463,53.2192,34.6837,101.233,258.8826,-1.9399e-06,-3.19e-06,0.0,0 STARLINK-3944,1 52544U 22051M   24180.30055920 -.00000319  00000-0 -19399-5 0  9990,2 52544  53.2192  34.6837 0001463 101.2330 258.8826 15.08843512117936,6917.87,95.437,540.747,538.723,0.0
52544.0,STARLINK-3944,PAYLOAD,2024-06-28 21:31:15,15.08853019,0.000129,53.2181,32.0083,108.7757,251.3375,0.00023908,3.52e-05,0.0,0 STARLINK-3944,1 52544U 22051M   24180.89670580  .00003520  00000-0  23908-3 0  9993,2 52544  53.2181  32.0083 0001290 108.7757 251.3375 15.08853019118023,6917.841,95.437,540.598,538.813,0.0
52544.0,STARLINK-3944,PAYLOAD,2024-06-29 13:25:09,15.08826882,0.0001605,53.2182,29.0319,97.0155,263.1019,2.3738e-05,9e-07,0.0,0 STARLINK-3944,1 52544U 22051M   24181.55913233  .00000090  00000-0  23738-4 0  9993,2 52544  53.2182  29.0319 0001605  97.0155 263.1019 15.08826882118129,6917.92,95.438,540.896,538.675,0.0
